[{"OBJECT_NAME":"YAOGAN-30 07B","OBJECT_ID":"2020-021B","EPOCH":"2026-03-09T12:49:57.763776","MEAN_MOTION":15.021739,"ECCENTRICITY":0.00015807,"INCLINATION":34.9937,"RA_OF_ASC_NODE":97.6546,"ARG_OF_PERICENTER":52.3271,"MEAN_ANOMALY":307.7581,"EPHEMERIS_TYPE":0,"CLASSIFICATION_TYPE":"U","NORAD_CAT_ID":45461,"ELEMENT_SET_NO":999,"REV_AT_EPOCH":32549,"BSTAR":0.00028705108,"MEAN_MOTION_DOT":3.828e-5,"MEAN_MOTION_DDOT":0},{"OBJECT_NAME":"STARLINK-5947","OBJECT_ID":"2023-042D","EPOCH":"2026-03-09T09:29:28.849056","MEAN_MOTION":15.02534572,"ECCENTRICITY":0.0001391,"INCLINATION":43.004,"RA_OF_ASC_NODE":57.923,"ARG_OF_PERICENTER":275.2329,"MEAN_ANOMALY":84.8355,"EPHEMERIS_TYPE":0,"CLASSIFICATION_TYPE":"U","NORAD_CAT_ID":55989,"ELEMENT_SET_NO":999,"REV_AT_EPOCH":16286,"BSTAR":-4.389085e-6,"MEAN_MOTION_DOT":-2.63e-6,"MEAN_MOTION_DDOT":0}]
